start=new Date('2021-11-18T00:00:00.000Z').valueOf();
sats=[{"EPOCH":"2021-11-17T17:13:07.149504","REV_AT_EPOCH":"11138","MEAN_MOTION_DOT":"0.00001967","CENTER_NAME":"EARTH","MEAN_ANOMALY":"279.5433","MEAN_MOTION":"15.06405682","ARG_OF_PERICENTER":"80.5713","MEAN_ELEMENT_THEORY":"SGP4","ECCENTRICITY":"0.00013880","TLE_LINE1":"1 44772U 19074BM  21321.71744386  .00001967  00000-0  15091-3 0  9996","ELEMENT_SET_NO":"999","MEAN_MOTION_DDOT":"0.0000000000000","PERIAPSIS":"546.235","EPHEMERIS_TYPE":"0","REF_FRAME":"TEME","OBJECT_ID":"2019-074BM","SITE":"AFETR","COUNTRY_CODE":"US","LAUNCH_DATE":"2019-11-11","SEMIMAJOR_AXIS":"6925.331","PERIOD":"95.592","INCLINATION":"53.0557","GP_ID":"189974150","CLASSIFICATION_TYPE":"U","APOAPSIS":"548.157","BSTAR":"0.00015091000000","OBJECT_TYPE":"PAYLOAD","DECAY_DATE":null,"TIME_SYSTEM":"UTC","NORAD_CAT_ID":"44772","RCS_SIZE":"LARGE","TLE_LINE2":"2 44772  53.0557  67.9682 0001388  80.5713 279.5433 15.06405682111387","RA_OF_ASC_NODE":"67.9682","OBJECT_NAME":"STARLINK-1068","FILE":"3217982"},{"DECAY_DATE":null,"TIME_SYSTEM":"UTC","NORAD_CAT_ID":"44914","RA_OF_ASC_NODE":"207.0041","OBJECT_NAME":"STARLINK-1073","RCS_SIZE":"LARGE","TLE_LINE2":"2 44914  53.0529 207.0041 0001959  72.2391 287.8811 15.06387834102799","FILE":"3217982","CLASSIFICATION_TYPE":"U","INCLINATION":"53.0529","GP_ID":"189975166","APOAPSIS":"548.608","BSTAR":"0.00010715000000","OBJECT_TYPE":"PAYLOAD","EPHEMERIS_TYPE":"0","MEAN_MOTION_DDOT":"0.0000000000000","PERIAPSIS":"545.894","OBJECT_ID":"2020-001A","REF_FRAME":"TEME","COUNTRY_CODE":"US","SITE":"AFETR","PERIOD":"95.593","LAUNCH_DATE":"2020-01-07","SEMIMAJOR_AXIS":"6925.386","REV_AT_EPOCH":"10279","MEAN_MOTION_DOT":"0.00001314","EPOCH":"2021-11-17T22:23:38.661504","CENTER_NAME":"EARTH","MEAN_ANOMALY":"287.8811","ARG_OF_PERICENTER":"72.2391","MEAN_MOTION":"15.06387834","ECCENTRICITY":"0.00019590","TLE_LINE1":"1 44914U 20001A   21321.93308636  .00001314  00000-0  10715-3 0  9998","ELEMENT_SET_NO":"999","MEAN_ELEMENT_THEORY":"SGP4"},{"MEAN_MOTION":"15.06397886","ARG_OF_PERICENTER":"75.8643","MEAN_ELEMENT_THEORY":"SGP4","ECCENTRICITY":"0.00016930","TLE_LINE1":"1 44915U 20001B   21321.69718084 -.00000477  00000-0 -13112-4 0  9990","ELEMENT_SET_NO":"999","EPOCH":"2021-11-17T16:43:56.424576","MEAN_MOTION_DOT":"-0.00000477","REV_AT_EPOCH":"10276","CENTER_NAME":"EARTH","MEAN_ANOMALY":"284.2534","SITE":"AFETR","COUNTRY_CODE":"US","SEMIMAJOR_AXIS":"6925.355","LAUNCH_DATE":"2020-01-07","PERIOD":"95.592","MEAN_MOTION_DDOT":"0.0000000000000","PERIAPSIS":"546.048","EPHEMERIS_TYPE":"0","REF_FRAME":"TEME","OBJECT_ID":"2020-001B","OBJECT_TYPE":"PAYLOAD","INCLINATION":"53.0531","GP_ID":"189974415","CLASSIFICATION_TYPE":"U","APOAPSIS":"548.392","BSTAR":"-0.00001311200000","RCS_SIZE":"LARGE","TLE_LINE2":"2 44915  53.0531 208.0634 0001693  75.8643 284.2534 15.06397886102764","RA_OF_ASC_NODE":"208.0634","OBJECT_NAME":"STARLINK-1084","FILE":"3217982","DECAY_DATE":null,"TIME_SYSTEM":"UTC","NORAD_CAT_ID":"44915"},{"MEAN_MOTION_DOT":"0.00003528","REV_AT_EPOCH":"10345","EPOCH":"2021-11-17T16:53:56.532192","MEAN_ANOMALY":"338.8711","CENTER_NAME":"EARTH","ARG_OF_PERICENTER":"21.2435","MEAN_MOTION":"15.71475041","ELEMENT_SET_NO":"999","TLE_LINE1":"1 44916U 20001C   21321.70412653  .00003528  00000-0  31684-4 0  9998","ECCENTRICITY":"0.00031250","MEAN_ELEMENT_THEORY":"SGP4","EPHEMERIS_TYPE":"0","PERIAPSIS":"352.579","MEAN_MOTION_DDOT":"0.0000000000000","OBJECT_ID":"2020-001C","REF_FRAME":"TEME","LAUNCH_DATE":"2020-01-07","SEMIMAJOR_AXIS":"6732.818","PERIOD":"91.634","COUNTRY_CODE":"US","SITE":"AFETR","CLASSIFICATION_TYPE":"U","INCLINATION":"53.0506","GP_ID":"189974665","BSTAR":"0.00003168400000","APOAPSIS":"356.787","OBJECT_TYPE":"PAYLOAD","DECAY_DATE":null,"NORAD_CAT_ID":"44916","TIME_SYSTEM":"UTC","RA_OF_ASC_NODE":"158.7883","OBJECT_NAME":"STARLINK-1097","TLE_LINE2":"2 44916  53.0506 158.7883 0003125  21.2435 338.8711 15.71475041103452","RCS_SIZE":"LARGE","FILE":"3217982"},{"CENTER_NAME":"EARTH","MEAN_ANOMALY":"280.9319","REV_AT_EPOCH":"10277","MEAN_MOTION_DOT":"0.00002120","EPOCH":"2021-11-17T18:24:46.588896","ECCENTRICITY":"0.00016490","ELEMENT_SET_NO":"999","TLE_LINE1":"1 44917U 20001D   21321.76720589  .00002120  00000-0  16119-3 0  9997","MEAN_ELEMENT_THEORY":"SGP4","ARG_OF_PERICENTER":"79.1855","MEAN_MOTION":"15.06404329","OBJECT_ID":"2020-001D","REF_FRAME":"TEME","EPHEMERIS_TYPE":"0","MEAN_MOTION_DDOT":"0.0000000000000","PERIAPSIS":"546.058","SITE":"AFETR","COUNTRY_CODE":"US","PERIOD":"95.592","LAUNCH_DATE":"2020-01-07","SEMIMAJOR_AXIS":"6925.335","APOAPSIS":"548.342","BSTAR":"0.00016119000000","CLASSIFICATION_TYPE":"U","GP_ID":"189975414","INCLINATION":"53.0533","OBJECT_TYPE":"PAYLOAD","TIME_SYSTEM":"UTC","NORAD_CAT_ID":"44917","DECAY_DATE":null,"FILE":"3217982","OBJECT_NAME":"STARLINK-1098","RA_OF_ASC_NODE":"207.7522","RCS_SIZE":"LARGE","TLE_LINE2":"2 44917  53.0533 207.7522 0001649  79.1855 280.9319 15.06404329102779"},{"CENTER_NAME":"EARTH","MEAN_ANOMALY":"284.4791","REV_AT_EPOCH":"10352","MEAN_MOTION_DOT":"-0.00000353","EPOCH":"2021-11-17T20:16:14.947680","ECCENTRICITY":"0.00017810","ELEMENT_SET_NO":"999","TLE_LINE1":"1 44918U 20001E   21321.84461745 -.00000353  00000-0 -48098-5 0  9994","MEAN_ELEMENT_THEORY":"SGP4","ARG_OF_PERICENTER":"75.6395","MEAN_MOTION":"15.06393840","OBJECT_ID":"2020-001E","REF_FRAME":"TEME","EPHEMERIS_TYPE":"0","MEAN_MOTION_DDOT":"0.0000000000000","PERIAPSIS":"545.999","SITE":"AFETR","COUNTRY_CODE":"US","PERIOD":"95.593","LAUNCH_DATE":"2020-01-07","SEMIMAJOR_AXIS":"6925.367","APOAPSIS":"548.466","BSTAR":"-0.00000480980000","CLASSIFICATION_TYPE":"U","GP_ID":"189975667","INCLINATION":"53.0545","OBJECT_TYPE":"PAYLOAD","TIME_SYSTEM":"UTC","NORAD_CAT_ID":"44918","DECAY_DATE":null,"FILE":"3217982","RA_OF_ASC_NODE":"207.4066","OBJECT_NAME":"STARLINK-1099","RCS_SIZE":"LARGE","TLE_LINE2":"2 44918  53.0545 207.4066 0001781  75.6395 284.4791 15.06393840103522"},{"RA_OF_ASC_NODE":"158.6322","OBJECT_NAME":"STARLINK-1101","TLE_LINE2":"2 44919  53.0536 158.6322 0002774 287.4563  72.6251 16.00036246103479","RCS_SIZE":"LARGE","FILE":"3217982","DECAY_DATE":null,"NORAD_CAT_ID":"44919","TIME_SYSTEM":"UTC","OBJECT_TYPE":"PAYLOAD","CLASSIFICATION_TYPE":"U","INCLINATION":"53.0536","GP_ID":"189973915","BSTAR":"0.00259750000000","APOAPSIS":"276.166","SEMIMAJOR_AXIS":"6652.455","LAUNCH_DATE":"2020-01-07","PERIOD":"89.998","SITE":"AFETR","COUNTRY_CODE":"US","EPHEMERIS_TYPE":"0","PERIAPSIS":"272.475","MEAN_MOTION_DDOT":"0.0009857700000","OBJECT_ID":"2020-001F","REF_FRAME":"TEME","ARG_OF_PERICENTER":"287.4563","MEAN_MOTION":"16.00036246","TLE_LINE1":"1 44919U 20001F   21321.94043630  .01346715  98577-3  25975-2 0  9994","ELEMENT_SET_NO":"999","ECCENTRICITY":"0.00027740","MEAN_ELEMENT_THEORY":"SGP4","REV_AT_EPOCH":"10347","MEAN_MOTION_DOT":"0.01346715","EPOCH":"2021-11-17T22:34:13.696320","MEAN_ANOMALY":"72.6251","CENTER_NAME":"EARTH"},{"OBJECT_TYPE":"PAYLOAD","APOAPSIS":"548.532","BSTAR":"0.00002061300000","CLASSIFICATION_TYPE":"U","INCLINATION":"53.0541","GP_ID":"189974165","FILE":"3217982","RA_OF_ASC_NODE":"207.3318","OBJECT_NAME":"STARLINK-1102","RCS_SIZE":"LARGE","TLE_LINE2":"2 44920  53.0541 207.3318 0001877  73.6793 286.4402 15.06393869102785","TIME_SYSTEM":"UTC","NORAD_CAT_ID":"44920","DECAY_DATE":null,"ECCENTRICITY":"0.00018770","TLE_LINE1":"1 44920U 20001G   21321.85936322  .00000025  00000-0  20613-4 0  9992","ELEMENT_SET_NO":"999","MEAN_ELEMENT_THEORY":"SGP4","ARG_OF_PERICENTER":"73.6793","MEAN_MOTION":"15.06393869","CENTER_NAME":"EARTH","MEAN_ANOMALY":"286.4402","MEAN_MOTION_DOT":"0.00000025","REV_AT_EPOCH":"10278","EPOCH":"2021-11-17T20:37:28.982208","SITE":"AFETR","COUNTRY_CODE":"US","SEMIMAJOR_AXIS":"6925.367","LAUNCH_DATE":"2020-01-07","PERIOD":"95.593","OBJECT_ID":"2020-001G","REF_FRAME":"TEME","EPHEMERIS_TYPE":"0","MEAN_MOTION_DDOT":"0.0000000000000","PERIAPSIS":"545.932"},{"TLE_LINE2":"2 44921  52.9988 206.9623 0001859  76.8103 283.3092 15.05583992102770","RCS_SIZE":"LARGE","OBJECT_NAME":"STARLINK-1103","RA_OF_ASC_NODE":"206.9623","FILE":"3217982","DECAY_DATE":null,"NORAD_CAT_ID":"44921","TIME_SYSTEM":"UTC","OBJECT_TYPE":"PAYLOAD","GP_ID":"189974914","INCLINATION":"52.9988","CLASSIFICATION_TYPE":"U","BSTAR":"-0.00000117720000","APOAPSIS":"551.004","LAUNCH_DATE":"2020-01-07","SEMIMAJOR_AXIS":"6927.851","PERIOD":"95.644","SITE":"AFETR","COUNTRY_CODE":"US","PERIAPSIS":"548.428","MEAN_MOTION_DDOT":"0.0000000000000","EPHEMERIS_TYPE":"0","REF_FRAME":"TEME","OBJECT_ID":"2020-001H","MEAN_MOTION":"15.05583992","ARG_OF_PERICENTER":"76.8103","MEAN_ELEMENT_THEORY":"SGP4","TLE_LINE1":"1 44921U 20001H   21321.94226135 -.00000297  00000-0 -11772-5 0  9997","ELEMENT_SET_NO":"999","ECCENTRICITY":"0.00018590","EPOCH":"2021-11-17T22:36:51.380640","MEAN_MOTION_DOT":"-0.00000297","REV_AT_EPOCH":"10277","MEAN_ANOMALY":"283.3092","CENTER_NAME":"EARTH"},{"MEAN_MOTION_DOT":"-0.00000208","REV_AT_EPOCH":"10276","EPOCH":"2021-11-17T17:10:29.040960","CENTER_NAME":"EARTH","MEAN_ANOMALY":"284.8950","ARG_OF_PERICENTER":"75.2250","MEAN_MOTION":"15.06393885","ECCENTRICITY":"0.00019030","TLE_LINE1":"1 44922U 20001J   21321.71561390 -.00000208  00000-0  49781-5 0  9990","ELEMENT_SET_NO":"999","MEAN_ELEMENT_THEORY":"SGP4","EPHEMERIS_TYPE":"0","MEAN_MOTION_DDOT":"0.0000000000000","PERIAPSIS":"545.914","OBJECT_ID":"2020-001J","REF_FRAME":"TEME","COUNTRY_CODE":"US","SITE":"AFETR","PERIOD":"95.593","LAUNCH_DATE":"2020-01-07","SEMIMAJOR_AXIS":"6925.367","CLASSIFICATION_TYPE":"U","INCLINATION":"53.0523","GP_ID":"189975167","APOAPSIS":"548.550","BSTAR":"0.00000497810000","OBJECT_TYPE":"PAYLOAD","DECAY_DATE":null,"TIME_SYSTEM":"UTC","NORAD_CAT_ID":"44922","RA_OF_ASC_NODE":"207.9781","OBJECT_NAME":"STARLINK-1104","RCS_SIZE":"LARGE","TLE_LINE2":"2 44922  53.0523 207.9781 0001903  75.2250 284.8950 15.06393885102769","FILE":"3217982"}];
